{
  "type": "FeatureCollection",
  "features": [
    {
      "type": "Feature",
      "properties": {
        "norad_id": 66725,
        "name": "FLOCK 4H-22",
        "group": "last-30-days",
        "lat": -3.765896491484601,
        "lon": -111.60321433063453,
        "alt_km": 517.3229752960078,
        "timestamp": "2025-12-23T07:45:08.115856+00:00",
        "meta_object_name": "FLOCK 4H-22",
        "meta_object_id": "2025-276BM",
        "meta_epoch": "2025-12-22T11:57:15.792480",
        "meta_mean_motion": 15.17482654,
        "meta_eccentricity": 0.00015992,
        "meta_inclination": 97.4379,
        "meta_ra_of_asc_node": 68.0794,
        "meta_arg_of_pericenter": 294.6705,
        "meta_mean_anomaly": 65.4362,
        "meta_ephemeris_type": 0,
        "meta_classification_type": "U",
        "meta_norad_cat_id": 66725,
        "meta_element_set_no": 999,
        "meta_rev_at_epoch": 360,
        "meta_bstar": 0.00035180603,
        "meta_mean_motion_dot": 6.983e-05,
        "meta_mean_motion_ddot": 0,
        "tle_line1": "1 66725U 25276BM  25356.49809945  .00006983  00000+0  35181-3 0  9993",
        "tle_line2": "2 66725  97.4379  68.0794 0001599 294.6705  65.4362 15.17482654  3606"
      },
      "geometry": {
        "type": "Point",
        "coordinates": [
          -111.60321433063453,
          -3.765896491484601
        ]
      }
    },
    {
      "type": "Feature",
      "properties": {
        "norad_id": 66726,
        "name": "FLOCK 4H-23",
        "group": "last-30-days",
        "lat": 16.09929561024788,
        "lon": -108.93141364067687,
        "alt_km": 514.3787641152367,
        "timestamp": "2025-12-23T07:45:08.115868+00:00",
        "meta_object_name": "FLOCK 4H-23",
        "meta_object_id": "2025-276BN",
        "meta_epoch": "2025-12-22T21:32:09.017376",
        "meta_mean_motion": 15.17209511,
        "meta_eccentricity": 0.00031123,
        "meta_inclination": 97.4443,
        "meta_ra_of_asc_node": 68.4876,
        "meta_arg_of_pericenter": 236.9985,
        "meta_mean_anomaly": 123.0949,
        "meta_ephemeris_type": 0,
        "meta_classification_type": "U",
        "meta_norad_cat_id": 66726,
        "meta_element_set_no": 999,
        "meta_rev_at_epoch": 366,
        "meta_bstar": -4.7965352e-05,
        "meta_mean_motion_dot": -1.019e-05,
        "meta_mean_motion_ddot": 0,
        "tle_line1": "1 66726U 25276BN  25356.89732659 -.00001019  00000+0 -47965-4 0  9996",
        "tle_line2": "2 66726  97.4443  68.4876 0003112 236.9985 123.0949 15.17209511  3663"
      },
      "geometry": {
        "type": "Point",
        "coordinates": [
          -108.93141364067687,
          16.09929561024788
        ]
      }
    },
    {
      "type": "Feature",
      "properties": {
        "norad_id": 66727,
        "name": "FLOCK 4H-24",
        "group": "last-30-days",
        "lat": 6.8403439231780645,
        "lon": -110.18976813978973,
        "alt_km": 515.9953292847449,
        "timestamp": "2025-12-23T07:45:08.115878+00:00",
        "meta_object_name": "FLOCK 4H-24",
        "meta_object_id": "2025-276BP",
        "meta_epoch": "2025-12-22T21:29:44.109888",
        "meta_mean_motion": 15.17324163,
        "meta_eccentricity": 0.0002806,
        "meta_inclination": 97.4442,
        "meta_ra_of_asc_node": 68.4916,
        "meta_arg_of_pericenter": 262.3987,
        "meta_mean_anomaly": 97.6928,
        "meta_ephemeris_type": 0,
        "meta_classification_type": "U",
        "meta_norad_cat_id": 66727,
        "meta_element_set_no": 999,
        "meta_rev_at_epoch": 366,
        "meta_bstar": 0.00029746226,
        "meta_mean_motion_dot": 5.867e-05,
        "meta_mean_motion_ddot": 0,
        "tle_line1": "1 66727U 25276BP  25356.89564942  .00005867  00000+0  29746-3 0  9994",
        "tle_line2": "2 66727  97.4442  68.4916 0002806 262.3987  97.6928 15.17324163  3666"
      },
      "geometry": {
        "type": "Point",
        "coordinates": [
          -110.18976813978973,
          6.8403439231780645
        ]
      }
    },
    {
      "type": "Feature",
      "properties": {
        "norad_id": 66728,
        "name": "FLOCK 4H-25",
        "group": "last-30-days",
        "lat": -70.08485211274437,
        "lon": -132.21465445035176,
        "alt_km": 519.342447760996,
        "timestamp": "2025-12-23T07:45:08.115887+00:00",
        "meta_object_name": "FLOCK 4H-25",
        "meta_object_id": "2025-276BQ",
        "meta_epoch": "2025-12-22T19:34:31.616544",
        "meta_mean_motion": 15.18209249,
        "meta_eccentricity": 0.00016428,
        "meta_inclination": 97.4399,
        "meta_ra_of_asc_node": 68.4291,
        "meta_arg_of_pericenter": 117.6483,
        "meta_mean_anomaly": 242.4918,
        "meta_ephemeris_type": 0,
        "meta_classification_type": "U",
        "meta_norad_cat_id": 66728,
        "meta_element_set_no": 999,
        "meta_rev_at_epoch": 293,
        "meta_bstar": 0.00033881431,
        "meta_mean_motion_dot": 6.865e-05,
        "meta_mean_motion_ddot": 0,
        "tle_line1": "1 66728U 25276BQ  25356.81564371  .00006865  00000+0  33881-3 0  9997",
        "tle_line2": "2 66728  97.4399  68.4291 0001642 117.6483 242.4918 15.18209249  2930"
      },
      "geometry": {
        "type": "Point",
        "coordinates": [
          -132.21465445035176,
          -70.08485211274437
        ]
      }
    },
    {
      "type": "Feature",
      "properties": {
        "norad_id": 66729,
        "name": "FLOCK 4H-26",
        "group": "last-30-days",
        "lat": 24.283202216237928,
        "lon": -107.73412818327685,
        "alt_km": 514.5458557316488,
        "timestamp": "2025-12-23T07:45:08.115899+00:00",
        "meta_object_name": "FLOCK 4H-26",
        "meta_object_id": "2025-276BR",
        "meta_epoch": "2025-12-22T21:34:17.983200",
        "meta_mean_motion": 15.17147937,
        "meta_eccentricity": 0.00037131,
        "meta_inclination": 97.4393,
        "meta_ra_of_asc_node": 68.4698,
        "meta_arg_of_pericenter": 261.1582,
        "meta_mean_anomaly": 98.9231,
        "meta_ephemeris_type": 0,
        "meta_classification_type": "U",
        "meta_norad_cat_id": 66729,
        "meta_element_set_no": 999,
        "meta_rev_at_epoch": 366,
        "meta_bstar": 0.00040328046,
        "meta_mean_motion_dot": 7.94e-05,
        "meta_mean_motion_ddot": 0,
        "tle_line1": "1 66729U 25276BR  25356.89881925  .00007940  00000+0  40328-3 0  9992",
        "tle_line2": "2 66729  97.4393  68.4698 0003713 261.1582  98.9231 15.17147937  3669"
      },
      "geometry": {
        "type": "Point",
        "coordinates": [
          -107.73412818327685,
          24.283202216237928
        ]
      }
    },
    {
      "type": "Feature",
      "properties": {
        "norad_id": 66730,
        "name": "FLOCK 4H-27",
        "group": "last-30-days",
        "lat": -58.83442261634342,
        "lon": -123.55843000298236,
        "alt_km": 519.0728113473688,
        "timestamp": "2025-12-23T07:45:08.115910+00:00",
        "meta_object_name": "FLOCK 4H-27",
        "meta_object_id": "2025-276BS",
        "meta_epoch": "2025-12-22T21:12:30.455712",
        "meta_mean_motion": 15.18085079,
        "meta_eccentricity": 0.00011859,
        "meta_inclination": 97.4374,
        "meta_ra_of_asc_node": 68.4835,
        "meta_arg_of_pericenter": 128.0091,
        "meta_mean_anomaly": 232.125,
        "meta_ephemeris_type": 0,
        "meta_classification_type": "U",
        "meta_norad_cat_id": 66730,
        "meta_element_set_no": 999,
        "meta_rev_at_epoch": 366,
        "meta_bstar": 0.00055768785,
        "meta_mean_motion_dot": 0.00011309,
        "meta_mean_motion_ddot": 0,
        "tle_line1": "1 66730U 25276BS  25356.88368583  .00011309  00000+0  55769-3 0  9992",
        "tle_line2": "2 66730  97.4374  68.4835 0001185 128.0091 232.1250 15.18085079  3662"
      },
      "geometry": {
        "type": "Point",
        "coordinates": [
          -123.55843000298236,
          -58.83442261634342
        ]
      }
    },
    {
      "type": "Feature",
      "properties": {
        "norad_id": 66731,
        "name": "FLOCK 4H-28",
        "group": "last-30-days",
        "lat": 22.591072359252514,
        "lon": -108.00055720229504,
        "alt_km": 514.7990641291753,
        "timestamp": "2025-12-23T07:45:08.115925+00:00",
        "meta_object_name": "FLOCK 4H-28",
        "meta_object_id": "2025-276BT",
        "meta_epoch": "2025-12-22T21:33:50.895936",
        "meta_mean_motion": 15.17138775,
        "meta_eccentricity": 0.00033317,
        "meta_inclination": 97.438,
        "meta_ra_of_asc_node": 68.4668,
        "meta_arg_of_pericenter": 263.5477,
        "meta_mean_anomaly": 96.5377,
        "meta_ephemeris_type": 0,
        "meta_classification_type": "U",
        "meta_norad_cat_id": 66731,
        "meta_element_set_no": 999,
        "meta_rev_at_epoch": 366,
        "meta_bstar": 0.00055465396,
        "meta_mean_motion_dot": 0.00010946,
        "meta_mean_motion_ddot": 0,
        "tle_line1": "1 66731U 25276BT  25356.89850574  .00010946  00000+0  55465-3 0  9999",
        "tle_line2": "2 66731  97.4380  68.4668 0003331 263.5477  96.5377 15.17138775  3665"
      },
      "geometry": {
        "type": "Point",
        "coordinates": [
          -108.00055720229504,
          22.591072359252514
        ]
      }
    }
  ]
}